CTC1_L_00678001-01
1 10000U 22849LD  26075.70040509  .00000000  00000+0  00000-0 0  9990
2 10000  70.0000   0.0000 0000000   0.0000   0.0000  1.91644749    16
CTC1_L_00678001-02
1 10001U 22549JN  26075.70040509  .00000000  00000+0  00000-0 0  9998
2 10001  70.0000   0.0000 0000000   0.0000  36.0000  1.91644749    16
CTC1_L_00678001-03
1 10002U 23140AR  26075.70040509  .00000000  00000+0  00000-0 0  9997
2 10002  70.0000   0.0000 0000000   0.0000  72.0000  1.91644749    17
CTC1_L_00678001-04
1 10003U 22551Y   26075.70040509  .00000000  00000+0  00000-0 0  9993
2 10003  70.0000   0.0000 0000000   0.0000 108.0000  1.91644749    18
CTC1_L_00678001-05
1 10004U 24019VP  26075.70040509  .00000000  00000+0  00000-0 0  9995
2 10004  70.0000   0.0000 0000000   0.0000 144.0000  1.91644749    19
CTC1_L_00678001-06
1 10005U 22430YE  26075.70040509  .00000000  00000+0  00000-0 0  9991
2 10005  70.0000   0.0000 0000000   0.0000 180.0000  1.91644749    10
CTC1_L_00678001-07
1 10006U 24485JS  26075.70040509  .00000000  00000+0  00000-0 0  9994
2 10006  70.0000   0.0000 0000000   0.0000 216.0000  1.91644749    11
CTC1_L_00678001-08
1 10007U 22796QI  26075.70040509  .00000000  00000+0  00000-0 0  9998
2 10007  70.0000   0.0000 0000000   0.0000 252.0000  1.91644749    12
CTC1_L_00678001-09
1 10008U 26124B   26075.70040509  .00000000  00000+0  00000-0 0  9998
2 10008  70.0000   0.0000 0000000   0.0000 288.0000  1.91644749    12
CTC1_L_00678001-10
1 10009U 24650RG  26075.70040509  .00000000  00000+0  00000-0 0  9991
2 10009  70.0000   0.0000 0000000   0.0000 324.0000  1.91644749    14
CTC1_L_00678002-01
1 10010U 23145FT  26075.70040509  .00000000  00000+0  00000-0 0  9991
2 10010  70.0000  30.0000 0000000   0.0000  12.0000  1.91644749    13
CTC1_L_00678002-02
1 10011U 23710BG  26075.70040509  .00000000  00000+0  00000-0 0  9990
2 10011  70.0000  30.0000 0000000   0.0000  48.0000  1.91644749    13
CTC1_L_00678002-03
1 10012U 24805ZT  26075.70040509  .00000000  00000+0  00000-0 0  9997
2 10012  70.0000  30.0000 0000000   0.0000  84.0000  1.91644749    14
CTC1_L_00678002-04
1 10013U 25482HW  26075.70040509  .00000000  00000+0  00000-0 0  9990
2 10013  70.0000  30.0000 0000000   0.0000 120.0000  1.91644749    16
CTC1_L_00678002-05
1 10014U 22043ZN  26075.70040509  .00000000  00000+0  00000-0 0  9991
2 10014  70.0000  30.0000 0000000   0.0000 156.0000  1.91644749    16
CTC1_L_00678002-06
1 10015U 24104QK  26075.70040509  .00000000  00000+0  00000-0 0  9992
2 10015  70.0000  30.0000 0000000   0.0000 192.0000  1.91644749    17
CTC1_L_00678002-07
1 10016U 23972UD  26075.70040509  .00000000  00000+0  00000-0 0  9995
2 10016  70.0000  30.0000 0000000   0.0000 228.0000  1.91644749    18
CTC1_L_00678002-08
1 10017U 22084DT  26075.70040509  .00000000  00000+0  00000-0 0  9999
2 10017  70.0000  30.0000 0000000   0.0000 264.0000  1.91644749    19
CTC1_L_00678002-09
1 10018U 23206RZ  26075.70040509  .00000000  00000+0  00000-0 0  9997
2 10018  70.0000  30.0000 0000000   0.0000 300.0000  1.91644749    11
CTC1_L_00678002-10
1 10019U 25109QR  26075.70040509  .00000000  00000+0  00000-0 0  9992
2 10019  70.0000  30.0000 0000000   0.0000 336.0000  1.91644749    11
CTC1_L_00678003-01
1 10020U 26385ZQ  26075.70040509  .00000000  00000+0  00000-0 0  9991
2 10020  70.0000  60.0000 0000000   0.0000  24.0000  1.91644749    10
CTC1_L_00678003-02
1 10021U 25536EY  26075.70040509  .00000000  00000+0  00000-0 0  9999
2 10021  70.0000  60.0000 0000000   0.0000  60.0000  1.91644749    11
CTC1_L_00678003-03
1 10022U 22732UC  26075.70040509  .00000000  00000+0  00000-0 0  9995
2 10022  70.0000  60.0000 0000000   0.0000  96.0000  1.91644749    11
CTC1_L_00678003-04
1 10023U 25671IN  26075.70040509  .00000000  00000+0  00000-0 0  9991
2 10023  70.0000  60.0000 0000000   0.0000 132.0000  1.91644749    13
CTC1_L_00678003-05
1 10024U 22749LO  26075.70040509  .00000000  00000+0  00000-0 0  9995
2 10024  70.0000  60.0000 0000000   0.0000 168.0000  1.91644749    13
CTC1_L_00678003-06
1 10025U 22522NC  26075.70040509  .00000000  00000+0  00000-0 0  9995
2 10025  70.0000  60.0000 0000000   0.0000 204.0000  1.91644749    15
CTC1_L_00678003-07
1 10026U 25013FP  26075.70040509  .00000000  00000+0  00000-0 0  9994
2 10026  70.0000  60.0000 0000000   0.0000 240.0000  1.91644749    16
CTC1_L_00678003-08
1 10027U 24467PC  26075.70040509  .00000000  00000+0  00000-0 0  9997
2 10027  70.0000  60.0000 0000000   0.0000 276.0000  1.91644749    16
CTC1_L_00678003-09
1 10028U 23112YE  26075.70040509  .00000000  00000+0  00000-0 0  9994
2 10028  70.0000  60.0000 0000000   0.0000 312.0000  1.91644749    18
CTC1_L_00678003-10
1 10029U 22491KS  26075.70040509  .00000000  00000+0  00000-0 0  9994
2 10029  70.0000  60.0000 0000000   0.0000 348.0000  1.91644749    18
CTC1_L_00678004-01
1 10030U 23559RV  26075.70040509  .00000000  00000+0  00000-0 0  9992
2 10030  70.0000  90.0000 0000000   0.0000  36.0000  1.91644749    17
CTC1_L_00678004-02
1 10031U 26118FR  26075.70040509  .00000000  00000+0  00000-0 0  9997
2 10031  70.0000  90.0000 0000000   0.0000  72.0000  1.91644749    18
CTC1_L_00678004-03
1 10032U 23080KZ  26075.70040509  .00000000  00000+0  00000-0 0  9993
2 10032  70.0000  90.0000 0000000   0.0000 108.0000  1.91644749    19
CTC1_L_00678004-04
1 10033U 23889IJ  26075.70040509  .00000000  00000+0  00000-0 0  9991
2 10033  70.0000  90.0000 0000000   0.0000 144.0000  1.91644749    10
CTC1_L_00678004-05
1 10034U 26035CE  26075.70040509  .00000000  00000+0  00000-0 0  9998
2 10034  70.0000  90.0000 0000000   0.0000 180.0000  1.91644749    11
CTC1_L_00678004-06
1 10035U 25994OX  26075.70040509  .00000000  00000+0  00000-0 0  9992
2 10035  70.0000  90.0000 0000000   0.0000 216.0000  1.91644749    12
CTC1_L_00678004-07
1 10036U 23533O   26075.70040509  .00000000  00000+0  00000-0 0  9990
2 10036  70.0000  90.0000 0000000   0.0000 252.0000  1.91644749    13
CTC1_L_00678004-08
1 10037U 23663PH  26075.70040509  .00000000  00000+0  00000-0 0  9995
2 10037  70.0000  90.0000 0000000   0.0000 288.0000  1.91644749    13
CTC1_L_00678004-09
1 10038U 22014WG  26075.70040509  .00000000  00000+0  00000-0 0  9995
2 10038  70.0000  90.0000 0000000   0.0000 324.0000  1.91644749    15
CTC1_L_00678004-10
1 10039U 26097MR  26075.70040509  .00000000  00000+0  00000-0 0  9991
2 10039  70.0000  90.0000 0000000   0.0000   0.0000  1.91644749    17
CTC1_L_00678005-01
1 10040U 26242G   26075.70040509  .00000000  00000+0  00000-0 0  9995
2 10040  70.0000 120.0000 0000000   0.0000  48.0000  1.91644749    15
CTC1_L_00678005-02
1 10041U 23159ZQ  26075.70040509  .00000000  00000+0  00000-0 0  9990
2 10041  70.0000 120.0000 0000000   0.0000  84.0000  1.91644749    16
CTC1_L_00678005-03
1 10042U 26804EL  26075.70040509  .00000000  00000+0  00000-0 0  9991
2 10042  70.0000 120.0000 0000000   0.0000 120.0000  1.91644749    18
CTC1_L_00678005-04
1 10043U 25749QB  26075.70040509  .00000000  00000+0  00000-0 0  9999
2 10043  70.0000 120.0000 0000000   0.0000 156.0000  1.91644749    18
CTC1_L_00678005-05
1 10044U 23139YZ  26075.70040509  .00000000  00000+0  00000-0 0  9991
2 10044  70.0000 120.0000 0000000   0.0000 192.0000  1.91644749    19
CTC1_L_00678005-06
1 10045U 24226SB  26075.70040509  .00000000  00000+0  00000-0 0  9990
2 10045  70.0000 120.0000 0000000   0.0000 228.0000  1.91644749    10
CTC1_L_00678005-07
1 10046U 25522CT  26075.70040509  .00000000  00000+0  00000-0 0  9991
2 10046  70.0000 120.0000 0000000   0.0000 264.0000  1.91644749    11
CTC1_L_00678005-08
1 10047U 26528QM  26075.70040509  .00000000  00000+0  00000-0 0  9999
2 10047  70.0000 120.0000 0000000   0.0000 300.0000  1.91644749    13
CTC1_L_00678005-09
1 10048U 22067NG  26075.70040509  .00000000  00000+0  00000-0 0  9994
2 10048  70.0000 120.0000 0000000   0.0000 336.0000  1.91644749    13
CTC1_L_00678005-10
1 10049U 26405CJ  26075.70040509  .00000000  00000+0  00000-0 0  9995
2 10049  70.0000 120.0000 0000000   0.0000  12.0000  1.91644749    15
CTC1_L_00678006-01
1 10050U 26288RN  26075.70040509  .00000000  00000+0  00000-0 0  9996
2 10050  70.0000 150.0000 0000000   0.0000  60.0000  1.91644749    13
CTC1_L_00678006-02
1 10051U 23741LU  26075.70040509  .00000000  00000+0  00000-0 0  9998
2 10051  70.0000 150.0000 0000000   0.0000  96.0000  1.91644749    13
CTC1_L_00678006-03
1 10052U 22414LQ  26075.70040509  .00000000  00000+0  00000-0 0  9995
2 10052  70.0000 150.0000 0000000   0.0000 132.0000  1.91644749    15
CTC1_L_00678006-04
1 10053U 25552AN  26075.70040509  .00000000  00000+0  00000-0 0  9992
2 10053  70.0000 150.0000 0000000   0.0000 168.0000  1.91644749    15
CTC1_L_00678006-05
1 10054U 22190SZ  26075.70040509  .00000000  00000+0  00000-0 0  9998
2 10054  70.0000 150.0000 0000000   0.0000 204.0000  1.91644749    17
CTC1_L_00678006-06
1 10055U 22138TK  26075.70040509  .00000000  00000+0  00000-0 0  9991
2 10055  70.0000 150.0000 0000000   0.0000 240.0000  1.91644749    18
CTC1_L_00678006-07
1 10056U 22171EB  26075.70040509  .00000000  00000+0  00000-0 0  9999
2 10056  70.0000 150.0000 0000000   0.0000 276.0000  1.91644749    18
CTC1_L_00678006-08
1 10057U 22602TV  26075.70040509  .00000000  00000+0  00000-0 0  9999
2 10057  70.0000 150.0000 0000000   0.0000 312.0000  1.91644749    10
CTC1_L_00678006-09
1 10058U 24616QG  26075.70040509  .00000000  00000+0  00000-0 0  9997
2 10058  70.0000 150.0000 0000000   0.0000 348.0000  1.91644749    10
CTC1_L_00678006-10
1 10059U 24808BX  26075.70040509  .00000000  00000+0  00000-0 0  9991
2 10059  70.0000 150.0000 0000000   0.0000  24.0000  1.91644749    12
CTC1_L_00678007-01
1 10060U 22654RZ  26075.70040509  .00000000  00000+0  00000-0 0  9990
2 10060  70.0000 180.0000 0000000   0.0000  72.0000  1.91644749    10
CTC1_L_00678007-02
1 10061U 24712WG  26075.70040509  .00000000  00000+0  00000-0 0  9998
2 10061  70.0000 180.0000 0000000   0.0000 108.0000  1.91644749    11
